OBJECT_NAME,OBJECT_ID,EPOCH,MEAN_MOTION,ECCENTRICITY,INCLINATION,RA_OF_ASC_NODE,ARG_OF_PERICENTER,MEAN_ANOMALY,EPHEMERIS_TYPE,CLASSIFICATION_TYPE,NORAD_CAT_ID,ELEMENT_SET_NO,REV_AT_EPOCH,BSTAR,MEAN_MOTION_DOT,MEAN_MOTION_DDOT
ONEWEB-0667,2023-029AH,2026-07-08T18:28:33.517632,13.20772928,.00019449,87.9198,270.1305,104.9174,255.2174,0,U,55827,999,16399,-.14004579E-3,-.44E-6,0
ONEWEB-0669,2023-029AJ,2026-07-08T18:21:16.547904,13.20772988,.00017784,87.9189,270.1414,86.4781,273.6556,0,U,55828,999,16399,-.17621366E-4,.6E-7,0
ONEWEB-0670,2023-029AK,2026-07-08T18:05:13.017696,13.14501369,.00015498,87.8953,285.4426,101.8777,258.2527,0,U,55829,999,16226,-.46317362E-3,-.159E-5,0
ONEWEB-0671,2023-029AL,2026-07-08T19:45:00.599040,13.19725579,.00019193,87.9180,300.6676,108.6141,251.5200,0,U,55830,999,16175,-.4963631E-5,.11E-6,0
ONEWEB-0672,2023-029AM,2026-07-08T18:14:00.175200,13.20769789,.000211,87.9192,270.1358,94.6122,265.5252,0,U,55831,999,16399,-.179822E-6,.13E-6,0
ONEWEB-0673,2023-029AN,2026-07-08T19:12:01.336608,13.19724917,.00018369,87.9192,300.6642,103.5696,256.5641,0,U,55832,999,16175,.19129457E-3,.9E-6,0
ONEWEB-0674,2023-029AP,2026-07-08T19:09:08.716320,13.14500986,.0001566,87.8960,285.4098,101.5709,258.5597,0,U,55833,999,16225,.60232277E-3,.236E-5,0
ONEWEB-0675,2023-029AQ,2026-07-08T23:11:59.106912,13.19723950,.00022608,87.9186,300.6396,98.7864,261.3525,0,U,55834,999,16179,.17382995E-3,.83E-6,0
ONEWEB-0720,2023-029AR,2026-07-08T19:22:16.254912,13.19725610,.00020477,87.9184,300.6718,110.5606,249.5747,0,U,55835,999,16169,.55906281E-4,.35E-6,0
ONEWEB-0537,2023-043A,2026-07-08T15:01:04.266048,13.16593477,.00021785,87.9087,224.5129,87.9447,272.1934,0,U,56046,999,16178,.32427707E-3,.137E-5,0
ONEWEB-0538,2023-043B,2026-07-08T14:51:56.809728,13.16593958,.00023015,87.9079,224.5173,97.9006,262.2386,0,U,56047,999,16179,.1323034E-3,.63E-6,0
ONEWEB-0546,2023-043C,2026-07-08T14:33:42.456960,13.16592833,.00023968,87.9069,224.5214,84.6506,275.4898,0,U,56048,999,16178,-.72427567E-4,-.15E-6,0
ONEWEB-0547,2023-043D,2026-07-08T14:16:05.487744,13.21827121,.00021621,87.9240,239.7151,101.0247,259.1130,0,U,56049,999,16105,-.10875411E-3,-.32E-6,0
ONEWEB-0548,2023-043E,2026-07-08T15:09:02.291328,13.16594254,.00016753,87.9083,224.5101,93.4625,266.6698,0,U,56050,999,16178,.16166327E-3,.75E-6,0
ONEWEB-0549,2023-043F,2026-07-08T15:56:37.432896,13.21826251,.00024727,87.9231,239.7070,104.1354,256.0055,0,U,56051,999,16106,-.18277789E-3,-.62E-6,0
ONEWEB-0550,2023-043G,2026-07-08T15:37:15.548160,13.21826706,.00018514,87.9232,239.7081,100.7537,259.3805,0,U,56052,999,16106,.17213674E-3,.84E-6,0
ONEWEB-0551,2023-043H,2026-07-08T16:18:25.039872,13.15547325,.00023559,87.8989,254.9441,105.2117,254.9274,0,U,56053,999,15922,-.49678208E-3,-.174E-5,0
ONEWEB-0552,2023-043J,2026-07-08T15:29:58.028928,13.21825804,.00020139,87.9234,239.7130,103.1691,256.9668,0,U,56054,999,16106,.61055502E-4,.38E-6,0
ONEWEB-0553,2023-043K,2026-07-08T14:42:49.576320,13.16593546,.00021351,87.9079,224.5189,85.2094,274.9280,0,U,56055,999,16179,-.50604406E-4,-.6E-7,0
ONEWEB-0554,2023-043L,2026-07-08T14:24:35.543232,13.16593578,.00016103,87.9073,224.5303,90.2294,269.9021,0,U,56056,999,16177,-.18687618E-3,-.59E-6,0
ONEWEB-0555,2023-043M,2026-07-08T15:19:17.925024,13.16593678,.00023145,87.9081,224.5117,79.5825,280.5566,0,U,56057,999,16178,.20258253E-3,.9E-6,0
ONEWEB-0557,2023-043N,2026-07-08T08:22:04.542816,13.16593786,.00017054,87.9081,224.5787,56.3413,303.7881,0,U,56058,999,16174,-.16149655E-3,-.49E-6,0
ONEWEB-0558,2023-043P,2026-07-08T15:20:17.164320,13.21825342,.00024236,87.9237,239.7097,98.4276,261.7133,0,U,56059,999,16107,.55655442E-4,.36E-6,0
ONEWEB-0559,2023-043Q,2026-07-08T15:03:19.036224,13.21824269,.00022423,87.9247,239.7069,103.2996,256.8389,0,U,56060,999,16108,-.48731639E-3,-.188E-5,0
ONEWEB-0566,2023-043R,2026-07-08T14:53:37.767264,13.21823595,.00021856,87.9231,239.7083,102.7674,257.3705,0,U,56061,999,16106,.16559123E-3,.81E-6,0
ONEWEB-0568,2023-043S,2026-07-08T14:15:28.543104,13.16595575,.00021854,87.9089,224.5188,87.3616,272.7765,0,U,56062,999,16179,-.27977957E-3,-.94E-6,0
ONEWEB-0574,2023-043T,2026-07-08T14:43:58.336896,13.21825748,.00018946,87.9239,239.7130,92.3502,267.7848,0,U,56063,999,16110,-.55934594E-4,-.1E-6,0
ONEWEB-0575,2023-043U,2026-07-08T14:06:20.778336,13.16595490,.00018673,87.9082,224.5166,83.7741,276.3603,0,U,56064,999,16178,-.33742305E-3,-.116E-5,0
ONEWEB-0576,2023-043V,2026-07-08T15:28:24.888000,13.16595180,.0001964,87.9095,224.5124,95.6135,264.5219,0,U,56065,999,16178,-.15096605E-3,-.45E-6,0
ONEWEB-0577,2023-043W,2026-07-08T15:37:32.829024,13.16595531,.0001457,87.9094,224.5084,82.0916,278.0380,0,U,56066,999,16181,.44899514E-4,.3E-6,0
