ONEWEB-0667             
1 55827U 23029AH  26189.76983238 -.00000044  00000+0 -14005-3 0  9997
2 55827  87.9198 270.1305 0001944 104.9174 255.2174 13.20772928163998
ONEWEB-0669             
1 55828U 23029AJ  26189.76477486  .00000006  00000+0 -17621-4 0  9996
2 55828  87.9189 270.1414 0001778  86.4781 273.6556 13.20772988163997
ONEWEB-0670             
1 55829U 23029AK  26189.75362289 -.00000159  00000+0 -46317-3 0  9993
2 55829  87.8953 285.4426 0001549 101.8777 258.2527 13.14501369162263
ONEWEB-0671             
1 55830U 23029AL  26189.82292360  .00000011  00000+0 -49636-5 0  9990
2 55830  87.9180 300.6676 0001919 108.6141 251.5200 13.19725579161759
ONEWEB-0672             
1 55831U 23029AM  26189.75972425  .00000013  00000+0 -17982-6 0  9992
2 55831  87.9192 270.1358 0002110  94.6122 265.5252 13.20769789163991
ONEWEB-0673             
1 55832U 23029AN  26189.80001547  .00000090  00000+0  19129-3 0  9993
2 55832  87.9192 300.6642 0001836 103.5696 256.5641 13.19724917161753
ONEWEB-0674             
1 55833U 23029AP  26189.79801755  .00000236  00000+0  60232-3 0  9994
2 55833  87.8960 285.4098 0001566 101.5709 258.5597 13.14500986162255
ONEWEB-0675             
1 55834U 23029AQ  26189.96665633  .00000083  00000+0  17383-3 0  9996
2 55834  87.9186 300.6396 0002260  98.7864 261.3525 13.19723950161793
ONEWEB-0720             
1 55835U 23029AR  26189.80713258  .00000035  00000+0  55906-4 0  9998
2 55835  87.9184 300.6718 0002047 110.5606 249.5747 13.19725610161698
ONEWEB-0537             
1 56046U 23043A   26189.62574382  .00000137  00000+0  32428-3 0  9998
2 56046  87.9087 224.5129 0002178  87.9447 272.1934 13.16593477161781
ONEWEB-0538             
1 56047U 23043B   26189.61940752  .00000063  00000+0  13230-3 0  9994
2 56047  87.9079 224.5173 0002301  97.9006 262.2386 13.16593958161798
ONEWEB-0546             
1 56048U 23043C   26189.60674140 -.00000015  00000+0 -72428-4 0  9993
2 56048  87.9069 224.5214 0002396  84.6506 275.4898 13.16592833161780
ONEWEB-0547             
1 56049U 23043D   26189.59450796 -.00000032  00000+0 -10875-3 0  9997
2 56049  87.9240 239.7151 0002162 101.0247 259.1130 13.21827121161052
ONEWEB-0548             
1 56050U 23043E   26189.63127652  .00000075  00000+0  16166-3 0  9990
2 56050  87.9083 224.5101 0001675  93.4625 266.6698 13.16594254161782
ONEWEB-0549             
1 56051U 23043F   26189.66432214 -.00000062  00000+0 -18278-3 0  9991
2 56051  87.9231 239.7070 0002472 104.1354 256.0055 13.21826251161068
ONEWEB-0550             
1 56052U 23043G   26189.65087440  .00000084  00000+0  17214-3 0  9999
2 56052  87.9232 239.7081 0001851 100.7537 259.3805 13.21826706161061
ONEWEB-0551             
1 56053U 23043H   26189.67945648 -.00000174  00000+0 -49678-3 0  9996
2 56053  87.8989 254.9441 0002355 105.2117 254.9274 13.15547325159229
ONEWEB-0552             
1 56054U 23043J   26189.64581052  .00000038  00000+0  61056-4 0  9991
2 56054  87.9234 239.7130 0002013 103.1691 256.9668 13.21825804161067
ONEWEB-0553             
1 56055U 23043K   26189.61307380 -.00000006  00000+0 -50604-4 0  9993
2 56055  87.9079 224.5189 0002135  85.2094 274.9280 13.16593546161792
ONEWEB-0554             
1 56056U 23043L   26189.60041138 -.00000059  00000+0 -18688-3 0  9992
2 56056  87.9073 224.5303 0001610  90.2294 269.9021 13.16593578161770
ONEWEB-0555             
1 56057U 23043M   26189.63840191  .00000090  00000+0  20258-3 0  9991
2 56057  87.9081 224.5117 0002314  79.5825 280.5566 13.16593678161780
ONEWEB-0557             
1 56058U 23043N   26189.34866369 -.00000049  00000+0 -16150-3 0  9997
2 56058  87.9081 224.5787 0001705  56.3413 303.7881 13.16593786161747
ONEWEB-0558             
1 56059U 23043P   26189.63908755  .00000036  00000+0  55655-4 0  9994
2 56059  87.9237 239.7097 0002423  98.4276 261.7133 13.21825342161076
ONEWEB-0559             
1 56060U 23043Q   26189.62730366 -.00000188  00000+0 -48732-3 0  9993
2 56060  87.9247 239.7069 0002242 103.2996 256.8389 13.21824269161087
ONEWEB-0566             
1 56061U 23043R   26189.62057601  .00000081  00000+0  16559-3 0  9990
2 56061  87.9231 239.7083 0002185 102.7674 257.3705 13.21823595161067
ONEWEB-0568             
1 56062U 23043S   26189.59408036 -.00000094  00000+0 -27978-3 0  9992
2 56062  87.9089 224.5188 0002185  87.3616 272.7765 13.16595575161796
ONEWEB-0574             
1 56063U 23043T   26189.61386964 -.00000010  00000+0 -55935-4 0  9994
2 56063  87.9239 239.7130 0001894  92.3502 267.7848 13.21825748161100
ONEWEB-0575             
1 56064U 23043U   26189.58774049 -.00000116  00000+0 -33742-3 0  9994
2 56064  87.9082 224.5166 0001867  83.7741 276.3603 13.16595490161788
ONEWEB-0576             
1 56065U 23043V   26189.64473250 -.00000045  00000+0 -15097-3 0  9996
2 56065  87.9095 224.5124 0001964  95.6135 264.5219 13.16595180161782
ONEWEB-0577             
1 56066U 23043W   26189.65107441  .00000030  00000+0  44900-4 0  9992
2 56066  87.9094 224.5084 0001457  82.0916 278.0380 13.16595531161814
